start=new Date('2022-06-06T00:00:00.000Z').valueOf();
sats=[{"EPOCH":"2022-06-05T14:57:06.984000","ELEMENT_SET_NO":"999","GP_ID":"205445482","APOAPSIS":"548.983","ECCENTRICITY":"0.00025070","SITE":"AFETR","TIME_SYSTEM":"UTC","CLASSIFICATION_TYPE":"U","OBJECT_TYPE":"PAYLOAD","RA_OF_ASC_NODE":"125.5533","OBJECT_NAME":"STARLINK-2557","COUNTRY_CODE":"US","CENTER_NAME":"EARTH","ARG_OF_PERICENTER":"54.6828","TLE_LINE2":"2 48299  53.0533 125.5533 0002507  54.6828 305.4395 15.06389249 61366","INCLINATION":"53.0533","MEAN_ELEMENT_THEORY":"SGP4","MEAN_MOTION":"15.06389249","TLE_LINE1":"1 48299U 21036Z   22156.62299750 -.00000555  00000-0 -18325-4 0  9990","DECAY_DATE":null,"REF_FRAME":"TEME","LAUNCH_DATE":"2021-04-29","PERIOD":"95.593","REV_AT_EPOCH":"6136","MEAN_MOTION_DDOT":"0.0000000000000","RCS_SIZE":"MEDIUM","FILE":"3482995","MEAN_MOTION_DOT":"-0.00000555","EPHEMERIS_TYPE":"0","BSTAR":"-0.00001832500000","NORAD_CAT_ID":"48299","OBJECT_ID":"2021-036Z","PERIAPSIS":"545.510","MEAN_ANOMALY":"305.4395","SEMIMAJOR_AXIS":"6925.382"},{"CLASSIFICATION_TYPE":"U","OBJECT_NAME":"STARLINK-2538","OBJECT_TYPE":"PAYLOAD","RA_OF_ASC_NODE":"135.2986","SITE":"AFETR","TIME_SYSTEM":"UTC","ARG_OF_PERICENTER":"52.5843","COUNTRY_CODE":"US","CENTER_NAME":"EARTH","EPOCH":"2022-06-05T16:20:43.173600","GP_ID":"205446732","APOAPSIS":"548.863","ECCENTRICITY":"0.00023660","ELEMENT_SET_NO":"999","MEAN_MOTION_DOT":"0.00000964","EPHEMERIS_TYPE":"0","NORAD_CAT_ID":"48300","BSTAR":"0.00008364000000","MEAN_ANOMALY":"307.5361","SEMIMAJOR_AXIS":"6925.359","PERIAPSIS":"545.585","OBJECT_ID":"2021-036AA","MEAN_MOTION":"15.06396605","TLE_LINE1":"1 48300U 21036AA  22156.68105525  .00000964  00000-0  83640-4 0  9999","MEAN_ELEMENT_THEORY":"SGP4","DECAY_DATE":null,"INCLINATION":"53.0526","TLE_LINE2":"2 48300  53.0526 135.2986 0002366  52.5843 307.5361 15.06396605 61234","MEAN_MOTION_DDOT":"0.0000000000000","REV_AT_EPOCH":"6123","FILE":"3482995","RCS_SIZE":"LARGE","LAUNCH_DATE":"2021-04-29","REF_FRAME":"TEME","PERIOD":"95.592"},{"NORAD_CAT_ID":"48301","BSTAR":"-0.00007888600000","MEAN_MOTION_DOT":"-0.00001456","EPHEMERIS_TYPE":"0","SEMIMAJOR_AXIS":"6925.364","MEAN_ANOMALY":"301.7152","PERIAPSIS":"545.911","OBJECT_ID":"2021-036AB","DECAY_DATE":null,"TLE_LINE1":"1 48301U 21036AB  22156.67736367 -.00001456  00000-0 -78886-4 0  9998","MEAN_MOTION":"15.06394923","MEAN_ELEMENT_THEORY":"SGP4","INCLINATION":"53.0541","TLE_LINE2":"2 48301  53.0541 135.3155 0001904  58.4022 301.7152 15.06394923 61226","FILE":"3482995","RCS_SIZE":"LARGE","MEAN_MOTION_DDOT":"0.0000000000000","REV_AT_EPOCH":"6122","PERIOD":"95.592","LAUNCH_DATE":"2021-04-29","REF_FRAME":"TEME","OBJECT_NAME":"STARLINK-2537","OBJECT_TYPE":"PAYLOAD","RA_OF_ASC_NODE":"135.3155","CLASSIFICATION_TYPE":"U","TIME_SYSTEM":"UTC","SITE":"AFETR","ARG_OF_PERICENTER":"58.4022","CENTER_NAME":"EARTH","COUNTRY_CODE":"US","EPOCH":"2022-06-05T16:15:24.221088","APOAPSIS":"548.548","ECCENTRICITY":"0.00019040","GP_ID":"205446983","ELEMENT_SET_NO":"999"},{"FILE":"3482995","RCS_SIZE":"LARGE","MEAN_MOTION_DDOT":"0.0000000000000","REV_AT_EPOCH":"6122","PERIOD":"95.592","LAUNCH_DATE":"2021-04-29","REF_FRAME":"TEME","DECAY_DATE":null,"MEAN_MOTION":"15.06401656","TLE_LINE1":"1 48302U 21036AC  22156.67367011  .00001072  00000-0  90879-4 0  9993","MEAN_ELEMENT_THEORY":"SGP4","INCLINATION":"53.0523","TLE_LINE2":"2 48302  53.0523 135.3309 0002309  56.6202 303.5008 15.06401656 61220","SEMIMAJOR_AXIS":"6925.343","MEAN_ANOMALY":"303.5008","PERIAPSIS":"545.609","OBJECT_ID":"2021-036AC","NORAD_CAT_ID":"48302","BSTAR":"0.00009087900000","MEAN_MOTION_DOT":"0.00001072","EPHEMERIS_TYPE":"0","ECCENTRICITY":"0.00023090","APOAPSIS":"548.808","GP_ID":"205445732","ELEMENT_SET_NO":"999","EPOCH":"2022-06-05T16:10:05.097504","ARG_OF_PERICENTER":"56.6202","CENTER_NAME":"EARTH","COUNTRY_CODE":"US","OBJECT_NAME":"STARLINK-2556","OBJECT_TYPE":"PAYLOAD","RA_OF_ASC_NODE":"135.3309","CLASSIFICATION_TYPE":"U","TIME_SYSTEM":"UTC","SITE":"AFETR"},{"ELEMENT_SET_NO":"999","APOAPSIS":"548.690","ECCENTRICITY":"0.00021040","GP_ID":"205445982","EPOCH":"2022-06-05T16:04:47.276832","CENTER_NAME":"EARTH","COUNTRY_CODE":"US","ARG_OF_PERICENTER":"52.4630","TIME_SYSTEM":"UTC","SITE":"AFETR","OBJECT_NAME":"STARLINK-2530","RA_OF_ASC_NODE":"135.3510","OBJECT_TYPE":"PAYLOAD","CLASSIFICATION_TYPE":"U","PERIOD":"95.593","LAUNCH_DATE":"2021-04-29","REF_FRAME":"TEME","FILE":"3482995","RCS_SIZE":"LARGE","REV_AT_EPOCH":"6122","MEAN_MOTION_DDOT":"0.0000000000000","INCLINATION":"53.0546","TLE_LINE2":"2 48303  53.0546 135.3510 0002104  52.4630 307.6550 15.06393612 61221","DECAY_DATE":null,"TLE_LINE1":"1 48303U 21036AD  22156.66999163  .00001234  00000-0  10177-3 0  9994","MEAN_MOTION":"15.06393612","MEAN_ELEMENT_THEORY":"SGP4","OBJECT_ID":"2021-036AD","PERIAPSIS":"545.776","SEMIMAJOR_AXIS":"6925.368","MEAN_ANOMALY":"307.6550","NORAD_CAT_ID":"48303","BSTAR":"0.00010177000000","EPHEMERIS_TYPE":"0","MEAN_MOTION_DOT":"0.00001234"},{"ARG_OF_PERICENTER":"50.9174","CENTER_NAME":"EARTH","COUNTRY_CODE":"US","RA_OF_ASC_NODE":"134.1731","OBJECT_TYPE":"PAYLOAD","OBJECT_NAME":"STARLINK-2524","CLASSIFICATION_TYPE":"U","TIME_SYSTEM":"UTC","SITE":"AFETR","APOAPSIS":"548.847","ECCENTRICITY":"0.00023280","GP_ID":"205446234","ELEMENT_SET_NO":"999","EPOCH":"2022-06-05T22:21:38.278656","SEMIMAJOR_AXIS":"6925.370","MEAN_ANOMALY":"309.2022","PERIAPSIS":"545.622","OBJECT_ID":"2021-036AE","BSTAR":"0.00006682400000","NORAD_CAT_ID":"48304","EPHEMERIS_TYPE":"0","MEAN_MOTION_DOT":"0.00000713","RCS_SIZE":"LARGE","FILE":"3482995","REV_AT_EPOCH":"6126","MEAN_MOTION_DDOT":"0.0000000000000","PERIOD":"95.593","REF_FRAME":"TEME","LAUNCH_DATE":"2021-04-29","DECAY_DATE":null,"MEAN_ELEMENT_THEORY":"SGP4","TLE_LINE1":"1 48304U 21036AE  22156.93169304  .00000713  00000-0  66824-4 0  9993","MEAN_MOTION":"15.06393098","TLE_LINE2":"2 48304  53.0541 134.1731 0002328  50.9174 309.2022 15.06393098 61267","INCLINATION":"53.0541"},{"ELEMENT_SET_NO":"999","APOAPSIS":"548.676","ECCENTRICITY":"0.00021650","GP_ID":"205446484","EPOCH":"2022-06-05T22:14:57.471648","CENTER_NAME":"EARTH","COUNTRY_CODE":"US","ARG_OF_PERICENTER":"60.5320","TIME_SYSTEM":"UTC","SITE":"AFETR","OBJECT_NAME":"STARLINK-2519","OBJECT_TYPE":"PAYLOAD","RA_OF_ASC_NODE":"134.1825","CLASSIFICATION_TYPE":"U","PERIOD":"95.591","LAUNCH_DATE":"2021-04-29","REF_FRAME":"TEME","FILE":"3482995","RCS_SIZE":"LARGE","MEAN_MOTION_DDOT":"0.0000000000000","REV_AT_EPOCH":"6126","INCLINATION":"53.0552","TLE_LINE2":"2 48305  53.0552 134.1825 0002165  60.5320 299.5884 15.06411921 61266","DECAY_DATE":null,"MEAN_MOTION":"15.06411921","TLE_LINE1":"1 48305U 21036AF  22156.92705407  .00000783  00000-0  71483-4 0  9997","MEAN_ELEMENT_THEORY":"SGP4","PERIAPSIS":"545.678","OBJECT_ID":"2021-036AF","SEMIMAJOR_AXIS":"6925.312","MEAN_ANOMALY":"299.5884","NORAD_CAT_ID":"48305","BSTAR":"0.00007148300000","EPHEMERIS_TYPE":"0","MEAN_MOTION_DOT":"0.00000783"},{"MEAN_ANOMALY":"305.9577","SEMIMAJOR_AXIS":"6925.363","PERIAPSIS":"545.728","OBJECT_ID":"2021-036AG","MEAN_MOTION_DOT":"0.00001031","EPHEMERIS_TYPE":"0","NORAD_CAT_ID":"48306","BSTAR":"0.00008810200000","REV_AT_EPOCH":"6126","MEAN_MOTION_DDOT":"0.0000000000000","FILE":"3482995","RCS_SIZE":"LARGE","LAUNCH_DATE":"2021-04-29","REF_FRAME":"TEME","PERIOD":"95.592","MEAN_MOTION":"15.06395386","TLE_LINE1":"1 48306U 21036AG  22156.92431971  .00001031  00000-0  88102-4 0  9993","MEAN_ELEMENT_THEORY":"SGP4","DECAY_DATE":null,"INCLINATION":"53.0541","TLE_LINE2":"2 48306  53.0541 134.2043 0002166  54.1613 305.9577 15.06395386 61260","ARG_OF_PERICENTER":"54.1613","COUNTRY_CODE":"US","CENTER_NAME":"EARTH","CLASSIFICATION_TYPE":"U","OBJECT_NAME":"STARLINK-2523","RA_OF_ASC_NODE":"134.2043","OBJECT_TYPE":"PAYLOAD","SITE":"AFETR","TIME_SYSTEM":"UTC","GP_ID":"205445233","ECCENTRICITY":"0.00021660","APOAPSIS":"548.728","ELEMENT_SET_NO":"999","EPOCH":"2022-06-05T22:11:01.222944"},{"SEMIMAJOR_AXIS":"6925.361","MEAN_ANOMALY":"299.6374","PERIAPSIS":"545.729","OBJECT_ID":"2021-036AH","BSTAR":"-0.00004900100000","NORAD_CAT_ID":"48307","EPHEMERIS_TYPE":"0","MEAN_MOTION_DOT":"-0.00001012","RCS_SIZE":"LARGE","FILE":"3482995","MEAN_MOTION_DDOT":"0.0000000000000","REV_AT_EPOCH":"6117","PERIOD":"95.592","REF_FRAME":"TEME","LAUNCH_DATE":"2021-04-29","DECAY_DATE":null,"MEAN_ELEMENT_THEORY":"SGP4","TLE_LINE1":"1 48307U 21036AH  22156.32351426 -.00001012  00000-0 -49001-4 0  9990","MEAN_MOTION":"15.06395959","TLE_LINE2":"2 48307  53.0555 136.9082 0002161  60.4830 299.6374 15.06395959 61174","INCLINATION":"53.0555","ARG_OF_PERICENTER":"60.4830","CENTER_NAME":"EARTH","COUNTRY_CODE":"US","RA_OF_ASC_NODE":"136.9082","OBJECT_TYPE":"PAYLOAD","OBJECT_NAME":"STARLINK-2528","CLASSIFICATION_TYPE":"U","TIME_SYSTEM":"UTC","SITE":"AFETR","APOAPSIS":"548.723","ECCENTRICITY":"0.00021610","GP_ID":"205445483","ELEMENT_SET_NO":"999","EPOCH":"2022-06-05T07:45:51.632064"},{"DECAY_DATE":null,"MEAN_ELEMENT_THEORY":"SGP4","TLE_LINE1":"1 48308U 21036AJ  22156.31982192  .00000976  00000-0  84456-4 0  9999","MEAN_MOTION":"15.06394193","TLE_LINE2":"2 48308  53.0540 136.9161 0002091  53.3478 306.7703 15.06394193 61173","INCLINATION":"53.0540","RCS_SIZE":"LARGE","FILE":"3482995","REV_AT_EPOCH":"6117","MEAN_MOTION_DDOT":"0.0000000000000","PERIOD":"95.593","REF_FRAME":"TEME","LAUNCH_DATE":"2021-04-29","BSTAR":"0.00008445600000","NORAD_CAT_ID":"48308","MEAN_MOTION_DOT":"0.00000976","EPHEMERIS_TYPE":"0","SEMIMAJOR_AXIS":"6925.366","MEAN_ANOMALY":"306.7703","OBJECT_ID":"2021-036AJ","PERIAPSIS":"545.783","EPOCH":"2022-06-05T07:40:32.613888","ECCENTRICITY":"0.00020910","APOAPSIS":"548.679","GP_ID":"205446733","ELEMENT_SET_NO":"999","RA_OF_ASC_NODE":"136.9161","OBJECT_TYPE":"PAYLOAD","OBJECT_NAME":"STARLINK-2532","CLASSIFICATION_TYPE":"U","TIME_SYSTEM":"UTC","SITE":"AFETR","ARG_OF_PERICENTER":"53.3478","CENTER_NAME":"EARTH","COUNTRY_CODE":"US"}];
